{
  "norad_id": 56874,
  "name": "LONGJIANG 3",
  "history": [
    {
      "epoch": "2026-03-28T22:40:13.594656Z",
      "apogee_km": 453.2332274347473,
      "perigee_km": 444.41306800229995,
      "latitude_deg": 2.597877864622911e-05,
      "longitude_deg": -67.7491999807292,
      "height_km": 445.5735647933803,
      "semi_major_axis_km": 6826.960147718523,
      "eccentricity": 0.00064598,
      "inclination_deg": 49.1082,
      "raan_deg": 98.6652,
      "arg_perigee_deg": 32.8826,
      "mean_anomaly_deg": 327.2524,
      "mean_motion_rev_day": 15.39081828
    },
    {
      "epoch": "2026-03-29T04:54:10.317312Z",
      "apogee_km": 453.19902469355475,
      "perigee_km": 444.34588851023364,
      "latitude_deg": -4.238624751596917e-05,
      "longitude_deg": -162.82605968840355,
      "height_km": 445.5696574042178,
      "semi_major_axis_km": 6826.909456601894,
      "eccentricity": 0.0006484,
      "inclination_deg": 49.1081,
      "raan_deg": 97.3307,
      "arg_perigee_deg": 34.3065,
      "mean_anomaly_deg": 325.8301,
      "mean_motion_rev_day": 15.3909897
    },
    {
      "epoch": "2026-03-30T04:16:26.029920Z",
      "apogee_km": 453.01441185361455,
      "perigee_km": 444.2160935503316,
      "latitude_deg": 1.6234988867553445e-05,
      "longitude_deg": -159.35799194429936,
      "height_km": 445.6699248061333,
      "semi_major_axis_km": 6826.752252701973,
      "eccentricity": 0.0006444,
      "inclination_deg": 49.1077,
      "raan_deg": 92.324,
      "arg_perigee_deg": 39.4234,
      "mean_anomaly_deg": 320.7183,
      "mean_motion_rev_day": 15.39152133
    },
    {
      "epoch": "2026-03-30T07:23:23.907840Z",
      "apogee_km": 452.99652857346246,
      "perigee_km": 444.19454924174624,
      "latitude_deg": -1.46046108690861e-05,
      "longitude_deg": 153.10535090391178,
      "height_km": 445.6794111777956,
      "semi_major_axis_km": 6826.732538907604,
      "eccentricity": 0.00064467,
      "inclination_deg": 49.1077,
      "raan_deg": 91.6565,
      "arg_perigee_deg": 40.0487,
      "mean_anomaly_deg": 320.0936,
      "mean_motion_rev_day": 15.391588
    },
    {
      "epoch": "2026-03-30T13:37:19.477056Z",
      "apogee_km": 452.9311629367676,
      "perigee_km": 444.16501661298753,
      "latitude_deg": 3.773873823702987e-05,
      "longitude_deg": 58.03241452400145,
      "height_km": 445.7080627422494,
      "semi_major_axis_km": 6826.685089774877,
      "eccentricity": 0.00064205,
      "inclination_deg": 49.1074,
      "raan_deg": 90.321,
      "arg_perigee_deg": 41.3039,
      "mean_anomaly_deg": 318.8395,
      "mean_motion_rev_day": 15.39174847
    },
    {
      "epoch": "2026-03-30T22:58:12.446400Z",
      "apogee_km": 452.82057384375,
      "perigee_km": 444.15062660901003,
      "latitude_deg": -1.1222023703833459e-05,
      "longitude_deg": -84.57554344070294,
      "height_km": 445.80101287100564,
      "semi_major_axis_km": 6826.622600226379,
      "eccentricity": 0.00063501,
      "inclination_deg": 49.1075,
      "raan_deg": 88.3177,
      "arg_perigee_deg": 43.6439,
      "mean_anomaly_deg": 316.5011,
      "mean_motion_rev_day": 15.39195981
    },
    {
      "epoch": "2026-03-31T20:46:54.266304Z",
      "apogee_km": 452.60886219460735,
      "perigee_km": 444.0716697257976,
      "latitude_deg": -5.640936502598594e-06,
      "longitude_deg": -57.31875823470613,
      "height_km": 445.94623193110806,
      "semi_major_axis_km": 6826.477265960202,
      "eccentricity": 0.0006253,
      "inclination_deg": 49.1073,
      "raan_deg": 83.6445,
      "arg_perigee_deg": 48.1866,
      "mean_anomaly_deg": 311.9616,
      "mean_motion_rev_day": 15.39245135
    },
    {
      "epoch": "2026-04-01T20:09:01.960128Z",
      "apogee_km": 452.37647083346747,
      "perigee_km": 444.01012042314505,
      "latitude_deg": 3.4733980829518395e-05,
      "longitude_deg": -53.818002512361254,
      "height_km": 446.13984818809274,
      "semi_major_axis_km": 6826.330295628306,
      "eccentricity": 0.0006128,
      "inclination_deg": 49.1077,
      "raan_deg": 78.637,
      "arg_perigee_deg": 53.2158,
      "mean_anomaly_deg": 306.9353,
      "mean_motion_rev_day": 15.39294845
    },
    {
      "epoch": "2026-04-02T21:04:34.460832Z",
      "apogee_km": 452.08342097591503,
      "perigee_km": 443.83476645626797,
      "latitude_deg": 5.937429002059636e-05,
      "longitude_deg": -74.06896198747481,
      "height_km": 446.27080543288685,
      "semi_major_axis_km": 6826.096093716092,
      "eccentricity": 0.0006042,
      "inclination_deg": 49.1084,
      "raan_deg": 73.2951,
      "arg_perigee_deg": 58.7542,
      "mean_anomaly_deg": 301.3999,
      "mean_motion_rev_day": 15.39374065
    },
    {
      "epoch": "2026-04-02T22:38:02.561280Z",
      "apogee_km": 452.0526576460152,
      "perigee_km": 443.8059504227858,
      "latitude_deg": -8.352428845077409e-06,
      "longitude_deg": -97.83398227183929,
      "height_km": 446.2614362196353,
      "semi_major_axis_km": 6826.066304034401,
      "eccentricity": 0.00060406,
      "inclination_deg": 49.1085,
      "raan_deg": 72.9612,
      "arg_perigee_deg": 59.0774,
      "mean_anomaly_deg": 301.0768,
      "mean_motion_rev_day": 15.39384142
    },
    {
      "epoch": "2026-04-03T22:00:01.973664Z",
      "apogee_km": 451.7817602535097,
      "perigee_km": 443.61669495804745,
      "latitude_deg": -6.013476403922414e-06,
      "longitude_deg": -94.29936008403051,
      "height_km": 446.3927394679244,
      "semi_major_axis_km": 6825.836227605779,
      "eccentricity": 0.0005981,
      "inclination_deg": 49.1091,
      "raan_deg": 67.953,
      "arg_perigee_deg": 64.5061,
      "mean_anomaly_deg": 295.6506,
      "mean_motion_rev_day": 15.39461974
    },
    {
      "epoch": "2026-04-04T21:21:57.121344Z",
      "apogee_km": 451.5636437489402,
      "perigee_km": 443.42476110316784,
      "latitude_deg": 5.261622159178497e-06,
      "longitude_deg": -90.74671277295964,
      "height_km": 446.542265258087,
      "semi_major_axis_km": 6825.631202426054,
      "eccentricity": 0.0005962,
      "inclination_deg": 49.1095,
      "raan_deg": 62.945,
      "arg_perigee_deg": 69.8432,
      "mean_anomaly_deg": 290.3158,
      "mean_motion_rev_day": 15.39531337
    },
    {
      "epoch": "2026-04-05T14:29:59.250336Z",
      "apogee_km": 451.4097844586586,
      "perigee_km": 443.2851372855048,
      "latitude_deg": 1.658184394512094e-05,
      "longitude_deg": 7.86835970414895,
      "height_km": 446.667618027459,
      "semi_major_axis_km": 6825.484460872081,
      "eccentricity": 0.00059517,
      "inclination_deg": 49.1096,
      "raan_deg": 59.2726,
      "arg_perigee_deg": 73.8497,
      "mean_anomaly_deg": 286.3107,
      "mean_motion_rev_day": 15.39580985
    },
    {
      "epoch": "2026-04-05T20:43:48.681696Z",
      "apogee_km": 451.35575129879,
      "perigee_km": 443.2416733239934,
      "latitude_deg": -3.394670046550317e-05,
      "longitude_deg": -87.17892160967011,
      "height_km": 446.7167719304259,
      "semi_major_axis_km": 6825.435712311391,
      "eccentricity": 0.0005944,
      "inclination_deg": 49.1096,
      "raan_deg": 57.9372,
      "arg_perigee_deg": 75.2634,
      "mean_anomaly_deg": 284.8973,
      "mean_motion_rev_day": 15.39597479
    }
  ]
}